start=new Date('2022-07-04T00:00:00.000Z').valueOf();
sats=[{"GP_ID":"207355665","TLE_LINE1":"1 47134U 20088N   22184.80751546  .00001358  00000-0  11003-3 0  9995","MEAN_ANOMALY":"285.9665","ARG_OF_PERICENTER":"74.1455","COUNTRY_CODE":"US","MEAN_ELEMENT_THEORY":"SGP4","SEMIMAJOR_AXIS":"6925.320","MEAN_MOTION":"15.06409318","EPOCH":"2022-07-03T19:22:49.335744","INCLINATION":"53.0540","APOAPSIS":"548.008","MEAN_MOTION_DOT":"0.00001358","NORAD_CAT_ID":"47134","CENTER_NAME":"EARTH","LAUNCH_DATE":"2020-11-25","PERIAPSIS":"546.362","SITE":"AFETR","OBJECT_TYPE":"PAYLOAD","DECAY_DATE":null,"RCS_SIZE":"LARGE","PERIOD":"95.592","MEAN_MOTION_DDOT":"0.0000000000000","TIME_SYSTEM":"UTC","TLE_LINE2":"2 47134  53.0540 219.0320 0001188  74.1455 285.9665 15.06409318 89138","RA_OF_ASC_NODE":"219.0320","ELEMENT_SET_NO":"999","REV_AT_EPOCH":"8913","ECCENTRICITY":"0.00011880","BSTAR":"0.00011003000000","OBJECT_ID":"2020-088N","OBJECT_NAME":"STARLINK-1844","EPHEMERIS_TYPE":"0","CLASSIFICATION_TYPE":"U","REF_FRAME":"TEME","FILE":"3507292"},{"EPOCH":"2022-07-03T13:28:33.964608","MEAN_MOTION":"15.06401256","APOAPSIS":"548.327","INCLINATION":"53.0531","SEMIMAJOR_AXIS":"6925.345","MEAN_ELEMENT_THEORY":"SGP4","NORAD_CAT_ID":"47135","CENTER_NAME":"EARTH","MEAN_MOTION_DOT":"0.00000815","TLE_LINE1":"1 47135U 20088P   22184.56150422  .00000815  00000-0  73622-4 0  9998","GP_ID":"207355915","COUNTRY_CODE":"US","ARG_OF_PERICENTER":"60.2567","MEAN_ANOMALY":"299.8583","TLE_LINE2":"2 47135  53.0531 210.1416 0001614  60.2567 299.8583 15.06401256 89238","ELEMENT_SET_NO":"999","RA_OF_ASC_NODE":"210.1416","REV_AT_EPOCH":"8923","BSTAR":"0.00007362200000","ECCENTRICITY":"0.00016140","TIME_SYSTEM":"UTC","REF_FRAME":"TEME","FILE":"3507292","EPHEMERIS_TYPE":"0","OBJECT_NAME":"STARLINK-1845","OBJECT_ID":"2020-088P","CLASSIFICATION_TYPE":"U","PERIAPSIS":"546.092","LAUNCH_DATE":"2020-11-25","RCS_SIZE":"LARGE","PERIOD":"95.592","MEAN_MOTION_DDOT":"0.0000000000000","DECAY_DATE":null,"OBJECT_TYPE":"PAYLOAD","SITE":"AFETR"},{"NORAD_CAT_ID":"47136","CENTER_NAME":"EARTH","MEAN_MOTION_DOT":"0.00000151","EPOCH":"2022-07-03T19:49:22.573344","MEAN_MOTION":"15.06400562","APOAPSIS":"548.163","INCLINATION":"53.0517","SEMIMAJOR_AXIS":"6925.347","MEAN_ELEMENT_THEORY":"SGP4","COUNTRY_CODE":"US","ARG_OF_PERICENTER":"81.3275","MEAN_ANOMALY":"278.7869","TLE_LINE1":"1 47136U 20088Q   22184.82595571  .00000151  00000-0  29007-4 0  9997","GP_ID":"207356664","REF_FRAME":"TEME","FILE":"3507292","OBJECT_NAME":"STARLINK-1846","EPHEMERIS_TYPE":"0","OBJECT_ID":"2020-088Q","CLASSIFICATION_TYPE":"U","TLE_LINE2":"2 47136  53.0517 218.9559 0001374  81.3275 278.7869 15.06400562 89131","RA_OF_ASC_NODE":"218.9559","ELEMENT_SET_NO":"999","REV_AT_EPOCH":"8913","ECCENTRICITY":"0.00013740","BSTAR":"0.00002900700000","TIME_SYSTEM":"UTC","RCS_SIZE":"LARGE","PERIOD":"95.592","MEAN_MOTION_DDOT":"0.0000000000000","DECAY_DATE":null,"OBJECT_TYPE":"PAYLOAD","SITE":"AFETR","PERIAPSIS":"546.260","LAUNCH_DATE":"2020-11-25"},{"MEAN_ANOMALY":"292.2376","ARG_OF_PERICENTER":"67.8766","COUNTRY_CODE":"US","TLE_LINE1":"1 47137U 20088R   22184.80846879  .00001236  00000-0  10188-3 0  9990","GP_ID":"207356402","MEAN_MOTION_DOT":"0.00001236","NORAD_CAT_ID":"47137","CENTER_NAME":"EARTH","MEAN_ELEMENT_THEORY":"SGP4","SEMIMAJOR_AXIS":"6925.357","MEAN_MOTION":"15.06397104","EPOCH":"2022-07-03T19:24:11.703456","INCLINATION":"53.0540","APOAPSIS":"548.224","SITE":"AFETR","OBJECT_TYPE":"PAYLOAD","DECAY_DATE":null,"RCS_SIZE":"LARGE","MEAN_MOTION_DDOT":"0.0000000000000","PERIOD":"95.592","LAUNCH_DATE":"2020-11-25","PERIAPSIS":"546.221","OBJECT_ID":"2020-088R","OBJECT_NAME":"STARLINK-1849","EPHEMERIS_TYPE":"0","CLASSIFICATION_TYPE":"U","REF_FRAME":"TEME","FILE":"3507292","TIME_SYSTEM":"UTC","ELEMENT_SET_NO":"999","TLE_LINE2":"2 47137  53.0540 209.0264 0001446  67.8766 292.2376 15.06397104 89272","RA_OF_ASC_NODE":"209.0264","REV_AT_EPOCH":"8927","ECCENTRICITY":"0.00014460","BSTAR":"0.00010188000000"},{"NORAD_CAT_ID":"47138","CENTER_NAME":"EARTH","MEAN_MOTION_DOT":"-0.00001257","EPOCH":"2022-07-03T20:56:26.220480","MEAN_MOTION":"15.06396530","APOAPSIS":"548.621","INCLINATION":"53.0531","SEMIMAJOR_AXIS":"6925.359","MEAN_ELEMENT_THEORY":"SGP4","COUNTRY_CODE":"US","ARG_OF_PERICENTER":"48.5812","MEAN_ANOMALY":"311.5350","GP_ID":"207355166","TLE_LINE1":"1 47138U 20088S   22184.87252570 -.00001257  00000-0 -65478-4 0  9995","REF_FRAME":"TEME","FILE":"3507292","OBJECT_NAME":"STARLINK-1850","EPHEMERIS_TYPE":"0","OBJECT_ID":"2020-088S","CLASSIFICATION_TYPE":"U","TLE_LINE2":"2 47138  53.0531 214.0592 0002017  48.5812 311.5350 15.06396530 89219","RA_OF_ASC_NODE":"214.0592","ELEMENT_SET_NO":"999","REV_AT_EPOCH":"8921","BSTAR":"-0.00006547800000","ECCENTRICITY":"0.00020170","TIME_SYSTEM":"UTC","RCS_SIZE":"LARGE","MEAN_MOTION_DDOT":"0.0000000000000","PERIOD":"95.592","DECAY_DATE":null,"OBJECT_TYPE":"PAYLOAD","SITE":"AFETR","PERIAPSIS":"545.827","LAUNCH_DATE":"2020-11-25"},{"PERIAPSIS":"546.201","LAUNCH_DATE":"2020-11-25","MEAN_MOTION_DDOT":"0.0000000000000","RCS_SIZE":"LARGE","PERIOD":"95.593","DECAY_DATE":null,"OBJECT_TYPE":"PAYLOAD","SITE":"AFETR","TLE_LINE2":"2 47139  53.0533 225.4989 0001513  65.2775 294.8371 15.06388355 89012","RA_OF_ASC_NODE":"225.4989","ELEMENT_SET_NO":"999","REV_AT_EPOCH":"8901","ECCENTRICITY":"0.00015130","BSTAR":"0.00003291900000","TIME_SYSTEM":"UTC","REF_FRAME":"TEME","FILE":"3507188","OBJECT_NAME":"STARLINK-1852","EPHEMERIS_TYPE":"0","OBJECT_ID":"2020-088T","CLASSIFICATION_TYPE":"U","GP_ID":"207327690","TLE_LINE1":"1 47139U 20088T   22184.52512348  .00000209  00000-0  32919-4 0  9998","COUNTRY_CODE":"US","ARG_OF_PERICENTER":"65.2775","MEAN_ANOMALY":"294.8371","EPOCH":"2022-07-03T12:36:10.668672","MEAN_MOTION":"15.06388355","APOAPSIS":"548.297","INCLINATION":"53.0533","SEMIMAJOR_AXIS":"6925.384","MEAN_ELEMENT_THEORY":"SGP4","NORAD_CAT_ID":"47139","CENTER_NAME":"EARTH","MEAN_MOTION_DOT":"0.00000209"},{"EPHEMERIS_TYPE":"0","OBJECT_NAME":"STARLINK-1854","OBJECT_ID":"2020-088V","CLASSIFICATION_TYPE":"U","REF_FRAME":"TEME","FILE":"3507292","TIME_SYSTEM":"UTC","TLE_LINE2":"2 47141  53.0543 210.0488 0001224  75.4132 284.6992 15.06400786 89243","REV_AT_EPOCH":"8924","RA_OF_ASC_NODE":"210.0488","ELEMENT_SET_NO":"999","ECCENTRICITY":"0.00012240","BSTAR":"0.00008448300000","SITE":"AFETR","OBJECT_TYPE":"PAYLOAD","DECAY_DATE":null,"PERIOD":"95.592","RCS_SIZE":"LARGE","MEAN_MOTION_DDOT":"0.0000000000000","LAUNCH_DATE":"2020-11-25","PERIAPSIS":"546.363","MEAN_MOTION_DOT":"0.00000977","NORAD_CAT_ID":"47141","CENTER_NAME":"EARTH","MEAN_ELEMENT_THEORY":"SGP4","SEMIMAJOR_AXIS":"6925.346","MEAN_MOTION":"15.06400786","EPOCH":"2022-07-03T14:00:23.946336","INCLINATION":"53.0543","APOAPSIS":"548.059","MEAN_ANOMALY":"284.6992","ARG_OF_PERICENTER":"75.4132","COUNTRY_CODE":"US","TLE_LINE1":"1 47141U 20088V   22184.58361049  .00000977  00000-0  84483-4 0  9992","GP_ID":"207356165"},{"TLE_LINE2":"2 47143  53.0532 209.2176 0001480  62.0045 298.1094 15.06410351 89260","RA_OF_ASC_NODE":"209.2176","ELEMENT_SET_NO":"999","REV_AT_EPOCH":"8926","BSTAR":"0.00013135000000","ECCENTRICITY":"0.00014800","TIME_SYSTEM":"UTC","REF_FRAME":"TEME","FILE":"3507292","OBJECT_ID":"2020-088X","OBJECT_NAME":"STARLINK-1856","EPHEMERIS_TYPE":"0","CLASSIFICATION_TYPE":"U","PERIAPSIS":"546.157","LAUNCH_DATE":"2020-11-25","DECAY_DATE":null,"PERIOD":"95.591","RCS_SIZE":"LARGE","MEAN_MOTION_DDOT":"0.0000000000000","SITE":"AFETR","OBJECT_TYPE":"PAYLOAD","MEAN_MOTION":"15.06410351","EPOCH":"2022-07-03T18:20:28.192416","INCLINATION":"53.0532","APOAPSIS":"548.207","MEAN_ELEMENT_THEORY":"SGP4","SEMIMAJOR_AXIS":"6925.317","NORAD_CAT_ID":"47143","CENTER_NAME":"EARTH","MEAN_MOTION_DOT":"0.00001676","GP_ID":"207356902","TLE_LINE1":"1 47143U 20088X   22184.76421519  .00001676  00000-0  13135-3 0  9995","ARG_OF_PERICENTER":"62.0045","COUNTRY_CODE":"US","MEAN_ANOMALY":"298.1094"},{"ARG_OF_PERICENTER":"46.9232","COUNTRY_CODE":"US","MEAN_ANOMALY":"313.1914","GP_ID":"207355666","TLE_LINE1":"1 47144U 20088Y   22184.75040046 -.00000872  00000-0 -39650-4 0  9997","NORAD_CAT_ID":"47144","CENTER_NAME":"EARTH","MEAN_MOTION_DOT":"-0.00000872","MEAN_MOTION":"15.06392287","EPOCH":"2022-07-03T18:00:34.599744","INCLINATION":"53.0531","APOAPSIS":"548.538","MEAN_ELEMENT_THEORY":"SGP4","SEMIMAJOR_AXIS":"6925.372","DECAY_DATE":null,"RCS_SIZE":"LARGE","MEAN_MOTION_DDOT":"0.0000000000000","PERIOD":"95.593","SITE":"AFETR","OBJECT_TYPE":"PAYLOAD","PERIAPSIS":"545.937","LAUNCH_DATE":"2020-11-25","REF_FRAME":"TEME","FILE":"3507292","EPHEMERIS_TYPE":"0","OBJECT_NAME":"STARLINK-1857","OBJECT_ID":"2020-088Y","CLASSIFICATION_TYPE":"U","ELEMENT_SET_NO":"999","TLE_LINE2":"2 47144  53.0531 199.2876 0001878  46.9232 313.1914 15.06392287 89407","RA_OF_ASC_NODE":"199.2876","REV_AT_EPOCH":"8940","BSTAR":"-0.00003965000000","ECCENTRICITY":"0.00018780","TIME_SYSTEM":"UTC"},{"NORAD_CAT_ID":"47145","CENTER_NAME":"EARTH","MEAN_MOTION_DOT":"0.00106606","EPOCH":"2022-07-03T21:56:32.318880","MEAN_MOTION":"15.81349756","APOAPSIS":"331.106","INCLINATION":"53.0467","SEMIMAJOR_AXIS":"6704.760","MEAN_ELEMENT_THEORY":"SGP4","COUNTRY_CODE":"US","ARG_OF_PERICENTER":"62.2695","MEAN_ANOMALY":"297.9004","GP_ID":"207355916","TLE_LINE1":"1 47145U 20088Z   22184.91426295  .00106606  00000-0  52460-3 0  9993","REF_FRAME":"TEME","FILE":"3507292","OBJECT_ID":"2020-088Z","OBJECT_NAME":"STARLINK-1858","EPHEMERIS_TYPE":"0","CLASSIFICATION_TYPE":"U","REV_AT_EPOCH":"9023","TLE_LINE2":"2 47145  53.0467 141.3291 0006684  62.2695 297.9004 15.81349756 90237","RA_OF_ASC_NODE":"141.3291","ELEMENT_SET_NO":"999","BSTAR":"0.00052460000000","ECCENTRICITY":"0.00066840","TIME_SYSTEM":"UTC","MEAN_MOTION_DDOT":"0.0000000000000","RCS_SIZE":"LARGE","PERIOD":"91.061","DECAY_DATE":null,"OBJECT_TYPE":"PAYLOAD","SITE":"AFETR","PERIAPSIS":"322.143","LAUNCH_DATE":"2020-11-25"}];
